C/2020 H7 (Lemmon),e,135.9235,323.5194,82.6780,1405,0.0000187,0.99685380,0.0000,06/02.9510/2020,2000,g 11.0,4.0
# From MPEC 2021-N06
C/2020 H8 (PANSTARRS),e,99.7000,68.4368,128.9190,599.9818,0.0000671,0.99221140,0.0000,06/04.5486/2020,2000,g 10.5,4.0
# From MPEC 2022-ED3
A/2020 H9,e,137.8795,213.1839,312.7934,366.9200,0.0001402,0.99299377,0.0000,12/21.8151/2019,2000,g 18.0,2.0
# From MPEC 2023-HN7
C/2020 H11 (PANSTARRS-Lemmon),h,09/14.6593/2020,151.3941,303.0430,91.4462,1.001874,7.625446,2000,8.5,4.0
# From MPEC 2023-KD6
C/2020 J1 (SONEAR),h,04/18.5881/2021,142.3059,226.6107,341.7131,1.000616,3.351298,2000,8.5,3.2
# From MPEC 2023-W26
C/2020 K1 (PANSTARRS),e,89.6732,94.3598,213.9848,17313,0.0000004,0.99982248,0.0000,05/09.0805/2023,2000,g  5.5,4.0
# From MPEC 2021-N06
C/2020 K2 (PANSTARRS),h,08/06.1392/2020,91.0119,288.4050,67.3493,1.003016,8.880618,2000,10.8,4.0
# From MPEC 2020-KF9
C/2020 K3 (Leonard),p,06/01.0032/2020,129.0152,64.4924,1.583069,28.3546,2000,14.5,4.0
# From MPEC 2020-L06
C/2020 K4 (PANSTARRS),e,125.5850,264.2315,308.8660,23.97203,0.0083974,0.92690701,11.4357,11/26.0/2023,2000,g 16.5,4.0
# From MPEC 2021-R75
C/2020 K5 (PANSTARRS),h,06/05.3004/2021,67.0950,86.1546,249.6225,1.001263,1.537584,2000,11.0,4.0
# From MPEC 2023-N01
C/2020 K6 (Rankin),h,09/15.7706/2021,103.6465,291.5688,44.3352,1.003567,5.868650,2000,8.0,4.0
# From MPEC 2023-A50
C/2020 K7 (PANSTARRS),e,32.0435,286.0962,358.2286,97.51085,0.0010236,0.93442401,1.5256,11/26.0/2023,2000,g  8.0,4.0
# From MPEC 2021-P47
C/2020 K8 (Catalina-ATLAS),h,09/15.0552/2020,31.4494,181.5166,259.9592,1.000215,0.471359,2000,15.0,3.2
# From MPEC 2021-BE3
P/2020 K9 (Lemmon-PANSTARRS),e,23.2058,166.3112,197.0478,4.204226,0.1143339,0.32103794,116.2303,11/26.0/2023,2000,g 12.5,4.0
# From MPEC 2023-C45
P/2020 M1 (PANSTARRS),e,8.5340,142.6069,72.6366,5.316383,0.0804044,0.47316902,115.1692,11/26.0/2023,2000,g 14.5,4.0
# From MPEC 2022-H30
C/2020 M3 (ATLAS),e,23.4691,71.1856,328.5571,27.17302,0.0069582,0.95328830,7.8350,11/26.0/2023,2000,g 14.5,4.0
# From MPEC 2023-N01
A/2020 M4,h,11/24.0187/2020,160.1214,348.6236,104.6064,1.001031,5.948605,2000,14.5,2.0
# From MPC xxxxx
P/2020 MK4 (PANSTARRS),e,6.7912,0.7085,96.6502,6.213217,0.0636399,0.01276842,277.9409,11/26.0/2023,2000,g  8.0,4.0
# From MPEC 2023-FK0
C/2020 M5 (ATLAS),h,08/19.8625/2021,93.2106,352.0810,126.2810,1.000346,3.001537,2000,9.0,4.0
# From MPEC 2022-GA9
C/2020 N1 (PANSTARRS),h,03/12.5346/2021,29.7312,279.9024,186.7697,1.000548,1.317465,2000,12.5,4.0
# From MPEC 2021-P47
C/2020 N2 (ATLAS),e,61.0369,257.1553,331.2533,101.3556,0.0009659,0.98231128,0.0000,08/23.5716/2020,2000,g 16.0,3.2
# From MPEC 2023-R20
C/2020 O2 (Amaral),h,08/28.2863/2021,71.7621,256.7836,10.2810,1.001106,4.861826,2000,8.0,3.2
# From MPEC 2023-C45
P/2020 O3 (PANSTARRS),e,8.4444,266.8184,81.5848,4.647327,0.0983783,0.10284478,101.3863,11/26.0/2023,2000,g 12.0,4.0
# From MPEC 2021-BE3
C/2020 P1 (NEOWISE),h,10/20.6549/2020,45.1652,53.4764,8.8946,1.000351,0.340621,2000,14.0,3.2
# From MPEC 2023-O39
C/2020 P3 (ATLAS),h,04/21.7655/2021,61.8874,19.4673,82.2923,1.002243,6.812925,2000,6.0,4.0
# From MPEC 2022-PB4
C/2020 PV6 (PANSTARRS),e,128.2113,329.1478,71.3643,42.04780,0.0036148,0.94544355,2.8589,11/26.0/2023,2000,g 10.0,4.0
# From MPEC 2022-L66
C/2020 Q1 (Borisov),e,42.9438,52.3982,9.9621,61.52775,0.0020422,0.97860869,0.0000,08/14.8956/2020,2000,g 14.0,4.0
# From MPEC 2023-CD7
C/2020 Q2 (PANSTARRS),e,3.3357,179.8237,118.2831,10.63063,0.0284358,0.49078368,39.7386,11/26.0/2023,2000,g 12.0,3.2
# From MPEC 2022-X67
C/2020 R2 (PANSTARRS),e,53.2280,195.0954,211.8236,419.6088,0.0001147,0.98881313,0.0000,02/25.1091/2022,2000,g  9.0,4.0
# From MPEC 2022-K19
C/2020 R4 (ATLAS),e,164.4409,323.2662,46.6477,99.59311,0.0009917,0.98970508,0.0000,03/02.3086/2021,2000,g 13.5,4.0
# From MPEC 2023-C45
P/2020 R5 (PANSTARRS),e,11.4422,272.9581,82.6941,4.989369,0.0884373,0.31419120,112.8085,11/26.0/2023,2000,g  9.5,6.0
# From MPEC 2021-Y10
C/2020 R6 (Rankin),e,82.8203,12.1830,271.9970,305.3287,0.0001847,0.98972918,0.0000,09/07.9852/2019,2000,g 11.0,4.0
# From MPEC 2023-TM6
C/2020 R7 (ATLAS),h,09/16.2398/2022,114.9009,268.2925,347.8374,1.000243,2.955698,2000,7.0,3.2
# From MPEC 2021-BE3
P/2020 S1 (PANSTARRS),e,13.7246,129.5191,255.0253,5.996110,0.0671274,0.50765597,69.9704,11/26.0/2023,2000,g 14.0,4.0
# From MPEC 2022-ST7
C/2020 S2 (PANSTARRS),e,22.4035,197.6934,202.3442,10.23274,0.0301104,0.82819635,32.1788,11/26.0/2023,2000,g 17.0,4.0
# From MPEC 2022-C56
C/2020 S3 (Erasmus),e,20.0177,222.5974,350.0751,147.7873,0.0005486,0.99732152,0.0000,12/11.7465/2020,2000,g 13.5,3.2
# From MPEC 2023-O39
C/2020 S4 (PANSTARRS),h,02/09.2574/2023,20.5676,117.7126,20.9986,1.001671,3.369687,2000,8.5,3.2
# From MPEC 2021-BE3
P/2020 S5 (PANSTARRS),e,12.3466,316.0586,53.2114,4.055545,0.1206786,0.33824567,145.2800,11/26.0/2023,2000,g 14.5,4.0
# From MPEC 2021-BE3
P/2020 S7 (PANSTARRS),e,16.0845,328.0933,40.5806,5.032781,0.0872955,0.41046513,96.2193,11/26.0/2023,2000,g 14.5,4.0
# From MPEC 2021-P47
C/2020 S8 (Lemmon),e,108.5277,24.0668,160.2346,255.4952,0.0002413,0.99076441,0.0000,04/10.7516/2021,2000,g 12.5,4.0
# From MPEC 2022-TD3
C/2020 T2 (Palomar),e,27.8375,83.0616,150.4465,297.3136,0.0001923,0.99307604,0.0000,07/10.8076/2021,2000,g 11.0,3.2
# From MPEC 2021-N06
P/2020 T3 (PANSTARRS),e,7.2983,73.9938,357.0404,3.516712,0.1494510,0.59231286,155.2604,11/26.0/2023,2000,g 18.0,3.2
# From MPEC 2021-N06
C/2020 T4 (PANSTARRS),h,07/05.4347/2021,83.8522,50.6197,79.5946,1.000305,2.190919,2000,13.0,3.2
# From MPEC 2021-BE3
C/2020 T5 (Lemmon),e,66.5475,237.8314,90.3539,704.7688,0.0000527,0.99731411,0.0000,10/09.0242/2020,2000,g 16.0,4.0
# From MPEC 2021-N06
P/2020 U2 (PANSTARRS),e,6.4204,342.8848,84.6560,3.777950,0.1342208,0.51131175,142.8922,11/26.0/2023,2000,g 18.0,4.0
# From MPEC 2021-W31
C/2020 U3 (Rankin),e,30.1489,282.6602,124.3531,66.98782,0.0017977,0.96598741,1.8385,11/26.0/2023,2000,g 15.0,4.0
# From MPEC 2023-W26
C/2020 U4 (PANSTARRS),h,04/09.3648/2022,167.0185,120.3511,70.0586,1.000307,5.359115,2000,7.0,4.0
# From MPEC 2023-SQ0
C/2020 U5 (PANSTARRS),e,97.2825,107.3203,75.4420,3810,0.0000042,0.99901389,0.0000,04/27.9943/2022,2000,g  8.0,4.0
# From MPEC 2023-W26
C/2020 V2 (ZTF),h,05/08.4780/2023,131.6115,212.3707,162.3950,1.000936,2.227573,2000,4.9,4.0
# From MPEC 2023-D72
P/2020 V3 (PANSTARRS),e,23.0325,198.2535,249.4671,8.392306,0.0405398,0.25740677,41.2744,11/26.0/2023,2000,g  8.3,4.0
# From MPEC 2023-KD6
P/2020 V4 (Rankin),e,14.2443,203.4827,257.0747,9.376970,0.0343250,0.45090106,29.5266,11/26.0/2023,2000,g  9.0,4.0
# From MPEC 2021-BE3
P/2020 W1 (Rankin),e,10.7832,124.3951,265.1583,7.218927,0.0508154,0.26629405,67.3424,11/26.0/2023,2000,g 10.0,4.0
# From MPEC 2021-BE3
C/2020 W5 (Lemmon),h,11/30.3423/2020,88.6066,75.4769,24.5118,1.001285,3.365808,2000,15.0,4.0
# From MPEC 2023-VM5
P/2020 WJ5 (Lemmon),e,22.2915,177.8032,338.0891,6.015077,0.0668101,0.17149953,58.7180,11/26.0/2023,2000,g  8.5,4.0
# From MPEC 2021-P47
P/2020 X1 (ATLAS),e,31.6877,56.0449,323.4272,4.532303,0.1021470,0.36531808,124.9261,11/26.0/2023,2000,g 13.0,4.0
# From MPEC 2023-VM5
C/2020 X2 (ATLAS),e,18.1844,105.3988,347.4168,16.47691,0.0147364,0.76772345,16.2778,11/26.0/2023,2000,g 10.6,4.0
# From MPEC 2021-S45
C/2020 X4 (Leonard),e,80.6239,161.9070,140.3173,40.79230,0.0037830,0.87194446,4.1801,11/26.0/2023,2000,g  9.0,4.0
# From MPEC 2023-V39
C/2020 Y2 (ATLAS),e,101.2346,26.5293,266.4103,4407,0.0000034,0.99928684,0.0000,06/18.6159/2022,2000,g  6.5,4.0
# From MPEC 2021-R75
C/2020 Y3 (ATLAS),e,83.1045,191.4308,341.9130,140.5579,0.0005915,0.98581129,0.0000,12/03.2769/2020,2000,g 13.5,4.0
# From MPEC 2023-CD7
C/2021 A1 (Leonard),h,01/03.3200/2022,132.7352,255.9050,225.1328,1.000074,0.616094,2000,8.5,4.0
# From MPEC 2022-F14
C/2021 A2 (NEOWISE),e,107.0020,125.1622,338.7691,229.5701,0.0002834,0.99384845,0.0000,01/22.3033/2021,2000,g 13.5,4.0
# From MPEC 2022-ED3
C/2021 A4 (NEOWISE),e,111.5533,307.1070,204.7161,42.38853,0.0035713,0.97291483,0.0000,03/19.6144/2021,2000,g 16.0,4.0
# From MPEC 2021-BE3
P/2021 A5 (PANSTARRS),e,18.1856,328.8311,61.3404,3.047582,0.1852554,0.13993184,205.2264,11/26.0/2023,2000,g 15.0,4.0
# From MPEC 2023-O39
C/2021 A6 (PANSTARRS),e,75.5935,164.0667,351.6168,8755,0.0000012,0.99909475,0.0000,05/02.9851/2021,2000,g  7.0,4.0
# From MPEC 2022-M88
C/2021 A7 (NEOWISE),e,78.1626,154.4839,355.9907,1951,0.0000114,0.99899249,0.0000,07/15.1484/2021,2000,g 10.0,4.0
# From MPEC 2023-W26
C/2021 A9 (PANSTARRS),h,12/01.9129/2023,158.0141,314.8357,211.4734,1.001331,7.760007,2000,6.0,4.0
# From MPEC 2021-N06
C/2021 A10 (NEOWISE),e,51.8966,188.6487,82.3891,88.30425,0.0011878,0.98570428,0.0000,03/14.9545/2021,2000,g 19.0,4.0
# From MPEC 2022-L66
C/2021 B2 (PANSTARRS),e,38.0818,120.5120,334.9887,373.3867,0.0001366,0.99327359,0.0000,05/04.5119/2021,2000,g 14.0,4.0
# From MPEC 2021-N06
C/2021 B3 (NEOWISE),e,119.4767,67.2777,293.5330,34.33348,0.0048992,0.93703621,4.8539,11/26.0/2023,2000,g 13.5,4.0
# From MPEC 2023-KD6
C/2021 C1 (Rankin),e,143.0439,186.8881,336.1854,4499,0.0000033,0.99922754,0.0000,12/06.7448/2020,2000,g 11.5,4.0
# From MPEC 2021-U31
P/2021 C2 (PANSTARRS),e,21.9391,66.4570,78.7011,9.535567,0.0334722,0.48760470,33.6538,11/26.0/2023,2000,g 12.0,4.0
# From MPEC 2021-N06
C/2021 C3 (Catalina),e,122.1688,181.9166,357.0409,61.36657,0.0020502,0.96295044,2.0852,11/26.0/2023,2000,g 14.0,4.0
# From MPEC 2022-M88
C/2021 C4 (ATLAS),e,132.8508,194.2734,320.1555,24009,0.0000003,0.99981260,0.0000,01/16.9027/2021,2000,g  9.0,4.0
# From MPEC 2023-R20
C/2021 C5 (PANSTARRS),e,50.7852,323.6763,270.9210,1954,0.0000114,0.99834076,0.0000,02/11.0409/2023,2000,g  9.0,4.0
# From MPEC 2022-YB4
C/2021 C6 (Lemmon),e,164.6081,332.3216,203.8140,43140,0.0000001,0.99992401,0.0000,11/12.8631/2021,2000,g 12.0,4.0
# From MPEC 2022-F14
C/2021 D1 (SWAN),e,31.4199,311.2699,72.2775,101.1223,0.0009692,0.99106600,0.0000,02/27.7627/2021,2000,g 13.0,4.0
# From MPEC 2023-J29
